{
 "cells": [
  {
   "cell_type": "code",
   "execution_count": 2,
   "id": "dc5d8685-f697-425a-a02b-77013844a17b",
   "metadata": {},
   "outputs": [],
   "source": [
    "# Import required libraries\n",
    "import os\n",
    "\n",
    "class Satellite:\n",
    "    def __init__(self, name, tle1, tle2):\n",
    "        \"\"\"Initializes a GPS satellite object with TLE data.\n",
    "        :param name: Name of the satellite\n",
    "        :param tle1: First line of TLE\n",
    "        :param tle2: Second line of TLE\"\"\"\n",
    "        self.name = name.strip()\n",
    "        self.tle1 = tle1.strip()\n",
    "        self.tle2 = tle2.strip()\n",
    "        self.ssc_number = self.tle1.split()[1]  # Extract SSC Number\n",
    "        self.epoch = self.tle1.split()[3]  # Extract reference epoch\n",
    "        self.mean_anomaly = self.tle2.split()[6]  # Extract Mean Anomaly\n",
    "        self.inclination = self.tle2.split()[2]  # Extract Inclination\n",
    "        self.raan = self.tle2.split()[3]  # Extract Right Ascension of Ascending Node (RAAN)\n",
    "\n",
    "    def __str__(self):\n",
    "        \"\"\"String representation of the Satellite object, formatted like your expected output.\"\"\"\n",
    "        return (f\"\\nSatellite name: {self.name}\\n\"\n",
    "                f\"SSC Number: {self.ssc_number}\\n\"\n",
    "                f\"Reference Epoch: {self.epoch}\\n\"\n",
    "                f\"Mean anomaly: {self.mean_anomaly}\\n\"\n",
    "                f\"Inclination: {self.inclination}°\\n\"\n",
    "                f\"RAAN: {self.raan}°\\n\"\n",
    "                f\"TLE data:\\n{self.tle1}\\n{self.tle2}\\n\")\n",
    "\n",
    "\n",
    "def load_gps_tle(tle_file):\n",
    "    \"\"\"Reads the GPS TLE file and returns a list of Satellite objects.\n",
    "    :param tle_file: Path to the TLE file\n",
    "    :return: List of Satellite objects\"\"\"\n",
    "    if not os.path.exists(tle_file):\n",
    "        raise FileNotFoundError(f\"Error: TLE file '{tle_file}' not found.\")\n",
    "\n",
    "    satellites = []\n",
    "    with open(tle_file, 'r') as file:\n",
    "        lines = file.readlines()\n",
    "\n",
    "    i = 0\n",
    "    while i < len(lines) - 2:\n",
    "        name = lines[i].strip()\n",
    "        tle1 = lines[i + 1].strip()\n",
    "        tle2 = lines[i + 2].strip()\n",
    "        satellites.append(Satellite(name, tle1, tle2))\n",
    "        i += 3  # Move to next satellite\n",
    "\n",
    "    return satellites"
   ]
  },
  {
   "cell_type": "code",
   "execution_count": 4,
   "id": "94eb8edd-9f23-47a7-ad66-94db426a933b",
   "metadata": {},
   "outputs": [
    {
     "ename": "FileNotFoundError",
     "evalue": "Error: TLE file 'C:\\Users\\hish13\\\\Desktop\\Hardware_Tracking_Software-MAIN 3\\Hardware_Tracking_Software-main\\gps-ops.txt' not found.",
     "output_type": "error",
     "traceback": [
      "\u001b[0;31m---------------------------------------------------------------------------\u001b[0m",
      "\u001b[0;31mFileNotFoundError\u001b[0m                         Traceback (most recent call last)",
      "Cell \u001b[0;32mIn[4], line 4\u001b[0m\n\u001b[1;32m      1\u001b[0m \u001b[38;5;66;03m# Provide the correct file path\u001b[39;00m\n\u001b[1;32m      2\u001b[0m tle_path\u001b[38;5;241m=\u001b[39m\u001b[38;5;124mr\u001b[39m\u001b[38;5;124m'\u001b[39m\u001b[38;5;124mC:\u001b[39m\u001b[38;5;124m\\\u001b[39m\u001b[38;5;124mUsers\u001b[39m\u001b[38;5;124m\\\u001b[39m\u001b[38;5;124mhish13\u001b[39m\u001b[38;5;130;01m\\\\\u001b[39;00m\u001b[38;5;124mDesktop\u001b[39m\u001b[38;5;124m\\\u001b[39m\u001b[38;5;124mHardware_Tracking_Software-MAIN 3\u001b[39m\u001b[38;5;124m\\\u001b[39m\u001b[38;5;124mHardware_Tracking_Software-main\u001b[39m\u001b[38;5;124m\\\u001b[39m\u001b[38;5;124mgps-ops.txt\u001b[39m\u001b[38;5;124m'\u001b[39m\n\u001b[0;32m----> 4\u001b[0m SatCons \u001b[38;5;241m=\u001b[39m \u001b[43mload_gps_tle\u001b[49m\u001b[43m(\u001b[49m\u001b[43mtle_path\u001b[49m\u001b[43m)\u001b[49m\n\u001b[1;32m      6\u001b[0m \u001b[38;5;28;01mfor\u001b[39;00m sat \u001b[38;5;129;01min\u001b[39;00m SatCons:\n\u001b[1;32m      7\u001b[0m     \u001b[38;5;28;01mif\u001b[39;00m \u001b[38;5;124m'\u001b[39m\u001b[38;5;124mPRN 19\u001b[39m\u001b[38;5;124m'\u001b[39m \u001b[38;5;129;01min\u001b[39;00m sat\u001b[38;5;241m.\u001b[39mname \u001b[38;5;129;01mor\u001b[39;00m \u001b[38;5;124m'\u001b[39m\u001b[38;5;124mPRN 19\u001b[39m\u001b[38;5;124m'\u001b[39m \u001b[38;5;129;01min\u001b[39;00m sat\u001b[38;5;241m.\u001b[39mtle1:\n",
      "Cell \u001b[0;32mIn[2], line 35\u001b[0m, in \u001b[0;36mload_gps_tle\u001b[0;34m(tle_file)\u001b[0m\n\u001b[1;32m     31\u001b[0m \u001b[38;5;250m\u001b[39m\u001b[38;5;124;03m\"\"\"Reads the GPS TLE file and returns a list of Satellite objects.\u001b[39;00m\n\u001b[1;32m     32\u001b[0m \u001b[38;5;124;03m:param tle_file: Path to the TLE file\u001b[39;00m\n\u001b[1;32m     33\u001b[0m \u001b[38;5;124;03m:return: List of Satellite objects\"\"\"\u001b[39;00m\n\u001b[1;32m     34\u001b[0m \u001b[38;5;28;01mif\u001b[39;00m \u001b[38;5;129;01mnot\u001b[39;00m os\u001b[38;5;241m.\u001b[39mpath\u001b[38;5;241m.\u001b[39mexists(tle_file):\n\u001b[0;32m---> 35\u001b[0m     \u001b[38;5;28;01mraise\u001b[39;00m \u001b[38;5;167;01mFileNotFoundError\u001b[39;00m(\u001b[38;5;124mf\u001b[39m\u001b[38;5;124m\"\u001b[39m\u001b[38;5;124mError: TLE file \u001b[39m\u001b[38;5;124m'\u001b[39m\u001b[38;5;132;01m{\u001b[39;00mtle_file\u001b[38;5;132;01m}\u001b[39;00m\u001b[38;5;124m'\u001b[39m\u001b[38;5;124m not found.\u001b[39m\u001b[38;5;124m\"\u001b[39m)\n\u001b[1;32m     37\u001b[0m satellites \u001b[38;5;241m=\u001b[39m []\n\u001b[1;32m     38\u001b[0m \u001b[38;5;28;01mwith\u001b[39;00m \u001b[38;5;28mopen\u001b[39m(tle_file, \u001b[38;5;124m'\u001b[39m\u001b[38;5;124mr\u001b[39m\u001b[38;5;124m'\u001b[39m) \u001b[38;5;28;01mas\u001b[39;00m file:\n",
      "\u001b[0;31mFileNotFoundError\u001b[0m: Error: TLE file 'C:\\Users\\hish13\\\\Desktop\\Hardware_Tracking_Software-MAIN 3\\Hardware_Tracking_Software-main\\gps-ops.txt' not found."
     ]
    }
   ],
   "source": [
    "# Provide the correct file path\n",
    "tle_path=r'C:\\Users\\hish13\\\\Desktop\\Hardware_Tracking_Software-MAIN 3\\Hardware_Tracking_Software-main\\gps-ops.txt'\n",
    "\n",
    "SatCons = load_gps_tle(tle_path)\n",
    "\n",
    "for sat in SatCons:\n",
    "    if 'PRN 19' in sat.name or 'PRN 19' in sat.tle1:\n",
    "        print(\"Found PRN 19:\")\n",
    "        print(sat)"
   ]
  },
  {
   "cell_type": "code",
   "execution_count": 15,
   "id": "0d0cd4e2-ae1e-47bd-8468-21c422bbcf1a",
   "metadata": {},
   "outputs": [
    {
     "name": "stdout",
     "output_type": "stream",
     "text": [
      "--------------------------------------------------------------------------------\n",
      "Satellite 1\n",
      "\n",
      "Satellite name: GPS BIIR-2  (PRN 13)\n",
      "SSC Number: 24876U\n",
      "Reference Epoch: 25076.50113892\n",
      "Mean anomaly: 307.0179\n",
      "Inclination: 55.7681°\n",
      "RAAN: 116.4396°\n",
      "TLE data:\n",
      "1 24876U 97035A   25076.50113892  .00000022  00000+0  00000+0 0  9992\n",
      "2 24876  55.7681 116.4396 0087517  53.8663 307.0179  2.00562662202796\n",
      "\n",
      "--------------------------------------------------------------------------------\n",
      "Satellite 2\n",
      "\n",
      "Satellite name: GPS BIIR-4  (PRN 20)\n",
      "SSC Number: 26360U\n",
      "Reference Epoch: 25076.54733222\n",
      "Mean anomaly: 252.1546\n",
      "Inclination: 54.8755°\n",
      "RAAN: 37.7683°\n",
      "TLE data:\n",
      "1 26360U 00025A   25076.54733222 -.00000071  00000+0  00000+0 0  9999\n",
      "2 26360  54.8755  37.7683 0038073 231.5337 252.1546  2.00557665182116\n",
      "\n",
      "--------------------------------------------------------------------------------\n",
      "Satellite 3\n",
      "\n",
      "Satellite name: GPS BIIR-5  (PRN 22)\n",
      "SSC Number: 26407U\n",
      "Reference Epoch: 25076.84032215\n",
      "Mean anomaly: 234.6900\n",
      "Inclination: 54.9693°\n",
      "RAAN: 233.2948°\n",
      "TLE data:\n",
      "1 26407U 00040A   25076.84032215  .00000028  00000+0  00000+0 0  9996\n",
      "2 26407  54.9693 233.2948 0134307 298.5380 234.6900  2.00564469180796\n",
      "\n",
      "--------------------------------------------------------------------------------\n",
      "Satellite 4\n",
      "\n",
      "Satellite name: GPS BIIR-8  (PRN 16)\n",
      "SSC Number: 27663U\n",
      "Reference Epoch: 25076.42051829\n",
      "Mean anomaly: 320.8020\n",
      "Inclination: 55.0049°\n",
      "RAAN: 233.1219°\n",
      "TLE data:\n",
      "1 27663U 03005A   25076.42051829  .00000024  00000+0  00000+0 0  9997\n",
      "2 27663  55.0049 233.1219 0143488  49.8587 320.8020  2.00559402162156\n",
      "\n",
      "--------------------------------------------------------------------------------\n",
      "Satellite 5\n",
      "\n",
      "Satellite name: GPS BIIR-11 (PRN 19)\n",
      "SSC Number: 28190U\n",
      "Reference Epoch: 25076.63361419\n",
      "Mean anomaly: 162.3344\n",
      "Inclination: 55.2165°\n",
      "RAAN: 294.0865°\n",
      "TLE data:\n",
      "1 28190U 04009A   25076.63361419 -.00000026  00000+0  00000+0 0  9993\n",
      "2 28190  55.2165 294.0865 0101788 157.3926 162.3344  2.00570212153818\n",
      "\n",
      "--------------------------------------------------------------------------------\n",
      "Satellite 6\n",
      "\n",
      "Satellite name: GPS BIIR-13 (PRN 02)\n",
      "SSC Number: 28474U\n",
      "Reference Epoch: 25076.60794208\n",
      "Mean anomaly: 56.7114\n",
      "Inclination: 55.3549°\n",
      "RAAN: 343.2547°\n",
      "TLE data:\n",
      "1 28474U 04045A   25076.60794208 -.00000094  00000+0  00000+0 0  9996\n",
      "2 28474  55.3549 343.2547 0163994 301.2774  56.7114  2.00657839149268\n",
      "\n",
      "--------------------------------------------------------------------------------\n",
      "Satellite 7\n",
      "\n",
      "Satellite name: GPS BIIRM-1 (PRN 17)\n",
      "SSC Number: 28874U\n",
      "Reference Epoch: 25076.38889758\n",
      "Mean anomaly: 239.6850\n",
      "Inclination: 55.2615°\n",
      "RAAN: 291.5665°\n",
      "TLE data:\n",
      "1 28874U 05038A   25076.38889758 -.00000024  00000+0  00000+0 0  9996\n",
      "2 28874  55.2615 291.5665 0133399 289.5874 239.6850  2.00566897142676\n",
      "\n",
      "--------------------------------------------------------------------------------\n",
      "Satellite 8\n",
      "\n",
      "Satellite name: GPS BIIRM-2 (PRN 31)\n",
      "SSC Number: 29486U\n",
      "Reference Epoch: 25076.36278344\n",
      "Mean anomaly: 5.2487\n",
      "Inclination: 54.6795°\n",
      "RAAN: 169.4624°\n",
      "TLE data:\n",
      "1 29486U 06042A   25076.36278344  .00000017  00000+0  00000+0 0  9994\n",
      "2 29486  54.6795 169.4624 0104401  45.3925   5.2487  2.00567907135233\n",
      "\n",
      "--------------------------------------------------------------------------------\n",
      "Satellite 9\n",
      "\n",
      "Satellite name: GPS BIIRM-3 (PRN 12)\n",
      "SSC Number: 29601U\n",
      "Reference Epoch: 25076.22069781\n",
      "Mean anomaly: 275.7895\n",
      "Inclination: 55.0440°\n",
      "RAAN: 232.1281°\n",
      "TLE data:\n",
      "1 29601U 06052A   25076.22069781  .00000022  00000+0  00000+0 0  9998\n",
      "2 29601  55.0440 232.1281 0087611  85.1677 275.7895  2.00557569134240\n",
      "\n",
      "--------------------------------------------------------------------------------\n",
      "Satellite 10\n",
      "\n",
      "Satellite name: GPS BIIRM-4 (PRN 15)\n",
      "SSC Number: 32260U\n",
      "Reference Epoch: 25076.03144397\n",
      "Mean anomaly: 281.8500\n",
      "Inclination: 53.7682°\n",
      "RAAN: 98.9470°\n",
      "TLE data:\n",
      "1 32260U 07047A   25076.03144397  .00000010  00000+0  00000+0 0  9991\n",
      "2 32260  53.7682  98.9470 0159065  80.0009 281.8500  2.00551453127645\n",
      "\n",
      "--------------------------------------------------------------------------------\n",
      "Satellite 11\n",
      "\n",
      "Satellite name: GPS BIIRM-5 (PRN 29)\n",
      "SSC Number: 32384U\n",
      "Reference Epoch: 25076.09269698\n",
      "Mean anomaly: 20.3366\n",
      "Inclination: 55.4054°\n",
      "RAAN: 292.4813°\n",
      "TLE data:\n",
      "1 32384U 07062A   25076.09269698 -.00000026  00000+0  00000+0 0  9991\n",
      "2 32384  55.4054 292.4813 0029678 153.4361  20.3366  2.00562507126342\n",
      "\n",
      "--------------------------------------------------------------------------------\n",
      "Satellite 12\n",
      "\n",
      "Satellite name: GPS BIIRM-6 (PRN 07)\n",
      "SSC Number: 32711U\n",
      "Reference Epoch: 25076.44057415\n",
      "Mean anomaly: 116.1301\n",
      "Inclination: 54.4567°\n",
      "RAAN: 168.1569°\n",
      "TLE data:\n",
      "1 32711U 08012A   25076.44057415  .00000017  00000+0  00000+0 0  9991\n",
      "2 32711  54.4567 168.1569 0195480 241.9210 116.1301  2.00555835124596\n",
      "\n",
      "--------------------------------------------------------------------------------\n",
      "Satellite 13\n",
      "\n",
      "Satellite name: GPS BIIRM-8 (PRN 05)\n",
      "SSC Number: 35752U\n",
      "Reference Epoch: 25076.66604890\n",
      "Mean anomaly: 98.9849\n",
      "Inclination: 55.8972°\n",
      "RAAN: 45.4376°\n",
      "TLE data:\n",
      "1 35752U 09043A   25076.66604890 -.00000057  00000+0  00000+0 0  9998\n",
      "2 35752  55.8972  45.4376 0053993  74.9031  98.9849  2.00553128114203\n",
      "\n",
      "--------------------------------------------------------------------------------\n",
      "Satellite 14\n",
      "\n",
      "Satellite name: GPS BIIF-1  (PRN 25)\n",
      "SSC Number: 36585U\n",
      "Reference Epoch: 25074.01690919\n",
      "Mean anomaly: 117.5715\n",
      "Inclination: 54.3654°\n",
      "RAAN: 227.0668°\n",
      "TLE data:\n",
      "1 36585U 10022A   25074.01690919 -.00000005  00000+0  00000+0 0  9999\n",
      "2 36585  54.3654 227.0668 0121659  63.7359 117.5715  2.00565198108387\n",
      "\n",
      "--------------------------------------------------------------------------------\n",
      "Satellite 15\n",
      "\n",
      "Satellite name: GPS BIIF-3  (PRN 24)\n",
      "SSC Number: 38833U\n",
      "Reference Epoch: 25076.62292547\n",
      "Mean anomaly: 301.7396\n",
      "Inclination: 53.5272°\n",
      "RAAN: 162.2925°\n",
      "TLE data:\n",
      "1 38833U 12053A   25076.62292547  .00000016  00000+0  00000+0 0  9998\n",
      "2 38833  53.5272 162.2925 0163324  59.9208 301.7396  2.00561903 90284\n",
      "\n",
      "--------------------------------------------------------------------------------\n",
      "Satellite 16\n",
      "\n",
      "Satellite name: GPS BIIF-4  (PRN 27)\n",
      "SSC Number: 39166U\n",
      "Reference Epoch: 25075.98686150\n",
      "Mean anomaly: 314.2233\n",
      "Inclination: 54.8768°\n",
      "RAAN: 287.5553°\n",
      "TLE data:\n",
      "1 39166U 13023A   25075.98686150 -.00000021  00000+0  00000+0 0  9998\n",
      "2 39166  54.8768 287.5553 0132962  46.9128 314.2233  2.00561884 86717\n",
      "\n",
      "--------------------------------------------------------------------------------\n",
      "Satellite 17\n",
      "\n",
      "Satellite name: GPS BIIF-5  (PRN 30)\n",
      "SSC Number: 39533U\n",
      "Reference Epoch: 25076.48487537\n",
      "Mean anomaly: 136.2717\n",
      "Inclination: 53.6077°\n",
      "RAAN: 167.9382°\n",
      "TLE data:\n",
      "1 39533U 14008A   25076.48487537  .00000016  00000+0  00000+0 0  9997\n",
      "2 39533  53.6077 167.9382 0076713 223.1651 136.2717  2.00557997 80529\n",
      "\n",
      "--------------------------------------------------------------------------------\n",
      "Satellite 18\n",
      "\n",
      "Satellite name: GPS BIIF-6  (PRN 06)\n",
      "SSC Number: 39741U\n",
      "Reference Epoch: 25076.76987966\n",
      "Mean anomaly: 41.0392\n",
      "Inclination: 56.6694°\n",
      "RAAN: 349.2621°\n",
      "TLE data:\n",
      "1 39741U 14026A   25076.76987966 -.00000096  00000+0  00000+0 0  9999\n",
      "2 39741  56.6694 349.2621 0036616 318.7178  41.0392  2.00580760 79380\n",
      "\n",
      "--------------------------------------------------------------------------------\n",
      "Satellite 19\n",
      "\n",
      "Satellite name: GPS BIIF-7  (PRN 09)\n",
      "SSC Number: 40105U\n",
      "Reference Epoch: 25076.35204735\n",
      "Mean anomaly: 242.1314\n",
      "Inclination: 55.0658°\n",
      "RAAN: 106.6905°\n",
      "TLE data:\n",
      "1 40105U 14045A   25076.35204735  .00000017  00000+0  00000+0 0  9999\n",
      "2 40105  55.0658 106.6905 0028097 118.2192 242.1314  2.00554952 76910\n",
      "\n",
      "--------------------------------------------------------------------------------\n",
      "Satellite 20\n",
      "\n",
      "Satellite name: GPS BIIF-8  (PRN 03)\n",
      "SSC Number: 40294U\n",
      "Reference Epoch: 25076.22379363\n",
      "Mean anomaly: 296.9217\n",
      "Inclination: 56.6520°\n",
      "RAAN: 48.6147°\n",
      "TLE data:\n",
      "1 40294U 14068A   25076.22379363 -.00000053  00000+0  00000+0 0  9990\n",
      "2 40294  56.6520  48.6147 0056580  63.6440 296.9217  2.00577390 76048\n",
      "\n",
      "--------------------------------------------------------------------------------\n",
      "Satellite 21\n",
      "\n",
      "Satellite name: GPS BIIF-9  (PRN 26)\n",
      "SSC Number: 40534U\n",
      "Reference Epoch: 25076.36606225\n",
      "Mean anomaly: 325.9870\n",
      "Inclination: 53.2619°\n",
      "RAAN: 223.0789°\n",
      "TLE data:\n",
      "1 40534U 15013A   25076.36606225  .00000020  00000+0  00000+0 0  9996\n",
      "2 40534  53.2619 223.0789 0097667  34.6000 325.9870  2.00548884 72667\n",
      "\n",
      "--------------------------------------------------------------------------------\n",
      "Satellite 22\n",
      "\n",
      "Satellite name: GPS BIIF-10 (PRN 08)\n",
      "SSC Number: 40730U\n",
      "Reference Epoch: 25076.52633452\n",
      "Mean anomaly: 336.5476\n",
      "Inclination: 54.3570°\n",
      "RAAN: 285.8719°\n",
      "TLE data:\n",
      "1 40730U 15033A   25076.52633452 -.00000016  00000+0  00000+0 0  9992\n",
      "2 40730  54.3570 285.8719 0104556  23.9617 336.5476  2.00553010 70837\n",
      "\n",
      "--------------------------------------------------------------------------------\n",
      "Satellite 23\n",
      "\n",
      "Satellite name: GPS BIIF-11 (PRN 10)\n",
      "SSC Number: 41019U\n",
      "Reference Epoch: 25076.08356570\n",
      "Mean anomaly: 130.5013\n",
      "Inclination: 56.6295°\n",
      "RAAN: 48.4760°\n",
      "TLE data:\n",
      "1 41019U 15062A   25076.08356570 -.00000053  00000+0  00000+0 0  9990\n",
      "2 41019  56.6295  48.4760 0102998 228.5978 130.5013  2.00566824 68661\n",
      "\n",
      "--------------------------------------------------------------------------------\n",
      "Satellite 24\n",
      "\n",
      "Satellite name: GPS BIIF-12 (PRN 32)\n",
      "SSC Number: 41328U\n",
      "Reference Epoch: 25076.16943250\n",
      "Mean anomaly: 117.5631\n",
      "Inclination: 55.2517°\n",
      "RAAN: 107.6005°\n",
      "TLE data:\n",
      "1 41328U 16007A   25076.16943250  .00000019  00000+0  00000+0 0  9990\n",
      "2 41328  55.2517 107.6005 0087079 241.6228 117.5631  2.00574184 66715\n",
      "\n",
      "--------------------------------------------------------------------------------\n",
      "Satellite 25\n",
      "\n",
      "Satellite name: GPS BIII-1  (PRN 04)\n",
      "SSC Number: 43873U\n",
      "Reference Epoch: 25076.55449970\n",
      "Mean anomaly: 334.9818\n",
      "Inclination: 55.4176°\n",
      "RAAN: 110.2202°\n",
      "TLE data:\n",
      "1 43873U 18109A   25076.55449970  .00000019  00000+0  00000+0 0  9995\n",
      "2 43873  55.4176 110.2202 0033165 197.3245 334.9818  2.00566447 45911\n",
      "\n",
      "--------------------------------------------------------------------------------\n",
      "Satellite 26\n",
      "\n",
      "Satellite name: GPS BIII-2  (PRN 18)\n",
      "SSC Number: 44506U\n",
      "Reference Epoch: 25076.18991697\n",
      "Mean anomaly: 337.3469\n",
      "Inclination: 55.8054°\n",
      "RAAN: 349.2795°\n",
      "TLE data:\n",
      "1 44506U 19056A   25076.18991697 -.00000098  00000+0  00000+0 0  9996\n",
      "2 44506  55.8054 349.2795 0049134 193.8477 337.3469  2.00561089 40906\n",
      "\n",
      "--------------------------------------------------------------------------------\n",
      "Satellite 27\n",
      "\n",
      "Satellite name: GPS BIII-3  (PRN 23)\n",
      "SSC Number: 45854U\n",
      "Reference Epoch: 25076.27966116\n",
      "Mean anomaly: 338.4113\n",
      "Inclination: 56.3486°\n",
      "RAAN: 46.7263°\n",
      "TLE data:\n",
      "1 45854U 20041A   25076.27966116 -.00000056  00000+0  00000+0 0  9991\n",
      "2 45854  56.3486  46.7263 0051264 199.8371 338.4113  2.00568382 34873\n",
      "\n",
      "--------------------------------------------------------------------------------\n",
      "Satellite 28\n",
      "\n",
      "Satellite name: GPS BIII-4  (PRN 14)\n",
      "SSC Number: 46826U\n",
      "Reference Epoch: 25076.80743037\n",
      "Mean anomaly: 330.9914\n",
      "Inclination: 54.0885°\n",
      "RAAN: 229.2927°\n",
      "TLE data:\n",
      "1 46826U 20078A   25076.80743037  .00000026  00000+0  00000+0 0  9991\n",
      "2 46826  54.0885 229.2927 0055435 199.1783 330.9914  2.00558847 32352\n",
      "\n",
      "--------------------------------------------------------------------------------\n",
      "Satellite 29\n",
      "\n",
      "Satellite name: GPS BIII-5  (PRN 11)\n",
      "SSC Number: 48859U\n",
      "Reference Epoch: 25075.54640461\n",
      "Mean anomaly: 298.0016\n",
      "Inclination: 55.3358°\n",
      "RAAN: 350.8296°\n",
      "TLE data:\n",
      "1 48859U 21054A   25075.54640461 -.00000102  00000+0  00000+0 0  9997\n",
      "2 48859  55.3358 350.8296 0018626 230.4653 298.0016  2.00569722 27574\n",
      "\n",
      "--------------------------------------------------------------------------------\n",
      "Satellite 30\n",
      "\n",
      "Satellite name: GPS BIII-6  (PRN 28)\n",
      "SSC Number: 55268U\n",
      "Reference Epoch: 25055.80589204\n",
      "Mean anomaly: 308.9006\n",
      "Inclination: 55.0899°\n",
      "RAAN: 167.2640°\n",
      "TLE data:\n",
      "1 55268U 23009A   25055.80589204  .00000001  00000+0  00000+0 0  9992\n",
      "2 55268  55.0899 167.2640 0000971  39.5557 308.9006  2.00545614 15662\n",
      "\n",
      "--------------------------------------------------------------------------------\n",
      "Satellite 31\n",
      "\n",
      "Satellite name: GPS BIII-7  (PRN 01)\n",
      "SSC Number: 62339U\n",
      "Reference Epoch: 25074.28425002\n",
      "Mean anomaly: 131.4950\n",
      "Inclination: 54.9895°\n",
      "RAAN: 352.7626°\n",
      "TLE data:\n",
      "1 62339U 24242A   25074.28425002 -.00000106  00000+0  00000+0 0  9994\n",
      "2 62339  54.9895 352.7626 0004829 324.9796 131.4950  2.00557063  2057\n",
      "\n"
     ]
    }
   ],
   "source": [
    "for i, sat in enumerate(gps_satellites, start=1):\n",
    "    print(f\"{'-'*80}\")\n",
    "    print(f\"Satellite {i}\")\n",
    "    print(str(sat))"
   ]
  }
 ],
 "metadata": {
  "kernelspec": {
   "display_name": "Python 3 (ipykernel)",
   "language": "python",
   "name": "python3"
  },
  "language_info": {
   "codemirror_mode": {
    "name": "ipython",
    "version": 3
   },
   "file_extension": ".py",
   "mimetype": "text/x-python",
   "name": "python",
   "nbconvert_exporter": "python",
   "pygments_lexer": "ipython3",
   "version": "3.12.8"
  }
 },
 "nbformat": 4,
 "nbformat_minor": 5
}
